IRIDIUM 39              
1 25042U 97069D   25071.52647542  .00001407  00000+0  36553-3 0  9990
2 25042  86.3862 252.5656 0015862 269.8333  90.1053 14.48973379434964
IRIDIUM 38              
1 25043U 97069E   25071.58860120  .00000800  00000+0  25829-3 0  9996
2 25043  86.3899 273.8145 0003833  72.8610 287.3007 14.37958965432070
IRIDIUM 42              
1 25077U 97077A   25071.61583598  .00000669  00000+0  22275-3 0  9992
2 25077  86.3908 279.8601 0002796  84.6856 275.4660 14.36207295427339
IRIDIUM 45              
1 25104U 97082A   25071.56027050  .00023312  00000+0  94323-3 0  9992
2 25104  86.3545  94.6736 0125331 334.0670  25.4322 15.17538145437369
IRIDIUM 24              
1 25105U 97082B   25071.58036862  .00000806  00000+0  23979-3 0  9998
2 25105  86.3892 121.2920 0012822  46.2151 314.0108 14.41935833429296
